[{"OBJECT_NAME":"STARLINK-34621","OBJECT_ID":"2025-147V","EPOCH":"2026-03-09T17:27:43.986816","MEAN_MOTION":15.3020433,"ECCENTRICITY":0.00011779,"INCLINATION":53.1611,"RA_OF_ASC_NODE":242.8482,"ARG_OF_PERICENTER":102.1066,"MEAN_ANOMALY":258.0067,"EPHEMERIS_TYPE":0,"CLASSIFICATION_TYPE":"U","NORAD_CAT_ID":64774,"ELEMENT_SET_NO":999,"REV_AT_EPOCH":3868,"BSTAR":0.00076278524,"MEAN_MOTION_DOT":0.00022303,"MEAN_MOTION_DDOT":0},{"OBJECT_NAME":"COSMOS 2251 DEB","OBJECT_ID":"1993-036BXP","EPOCH":"2026-03-04T07:23:49.847712","MEAN_MOTION":15.24789556,"ECCENTRICITY":0.00190834,"INCLINATION":73.9759,"RA_OF_ASC_NODE":64.3004,"ARG_OF_PERICENTER":239.4537,"MEAN_ANOMALY":120.4779,"EPHEMERIS_TYPE":0,"CLASSIFICATION_TYPE":"U","NORAD_CAT_ID":47059,"ELEMENT_SET_NO":999,"REV_AT_EPOCH":9543,"BSTAR":0.0048704033,"MEAN_MOTION_DOT":0.00123422,"MEAN_MOTION_DDOT":0}]
